*******************************************************************************
Revised: April 12, 2021         Earth Barycenter                              3
 
 Dynamical point:
 ---------------
 The common point about which the Earth and Moon revolve (center of mass). This
 is approximately 4671 km from the center of the Earth, or about 3/4 of the way 
 to the surface. See 399 for Earth center, or 301 for Moon center ephemeris.
*******************************************************************************


*******************************************************************************
Ephemeris / WWW_USER Sat Nov 13 16:53:23 2021 Pasadena, USA      / Horizons
*******************************************************************************
Target body name: Earth-Moon Barycenter (3)       {source: DE441}
Center body name: Earth (399)                     {source: DE441}
Center-site name: BODY CENTER
*******************************************************************************
Start time      : A.D. 1970-Jan-01 00:00:00.0000 TDB
Stop  time      : A.D. 2040-Jan-01 00:00:00.0000 TDB
Step-size       : 11520 minutes
*******************************************************************************
Center geodetic : 0.00000000,0.00000000,0.0000000 {E-lon(deg),Lat(deg),Alt(km)}
Center cylindric: 0.00000000,0.00000000,0.0000000 {E-lon(deg),Dxy(km),Dz(km)}
Center radii    : 6378.1 x 6378.1 x 6356.8 km     {Equator, meridian, pole}    
Output units    : AU-D
Output type     : GEOMETRIC cartesian states
Output format   : 2 (position and velocity)
EOP file        : eop.211111.p220204
EOP coverage    : DATA-BASED 1962-JAN-20 TO 2021-NOV-11. PREDICTS-> 2022-FEB-03
Reference frame : ICRF
*******************************************************************************
JDTDB
   X     Y     Z
   VX    VY    VZ
*******************************************************************************
$$SOE
2445915.500000000 = A.D. 1984-Aug-03 00:00:00.0000 TDB 
 X =-2.680516658970101E-05 Y =-1.298513765923884E-05 Z =-3.856786700278055E-06
 VX= 3.032918297232142E-06 VY=-6.011596361613350E-06 VZ=-3.153839700972287E-06
2445923.500000000 = A.D. 1984-Aug-11 00:00:00.0000 TDB 
 X = 2.134437908451263E-05 Y =-2.123137259896448E-05 Z =-1.205887853482120E-05
 VX= 5.339804338042919E-06 VY= 4.162077351861298E-06 VZ= 1.532940099797535E-06
2445931.500000000 = A.D. 1984-Aug-19 00:00:00.0000 TDB 
 X = 2.199660159869123E-05 Y = 2.204896542844384E-05 Z = 8.725259217911811E-06
 VX=-5.244344257502659E-06 VY= 3.834473440418085E-06 VZ= 2.306230074452299E-06
2445939.500000000 = A.D. 1984-Aug-27 00:00:00.0000 TDB 
 X =-2.669569048537715E-05 Y = 9.480638577231579E-06 Z = 6.872014158327645E-06
 VX=-2.937271187408555E-06 VY=-6.502960523662425E-06 VZ=-2.890417739102344E-06
2445947.500000000 = A.D. 1984-Sep-04 00:00:00.0000 TDB 
 X = 4.359785587884108E-07 Y =-2.833848251432627E-05 Z =-1.376763162214308E-05
 VX= 7.062350161988749E-06 VY=-2.361725240699869E-08 VZ=-6.187190268663002E-07
2445955.500000000 = A.D. 1984-Sep-12 00:00:00.0000 TDB 
 X = 3.258359279163185E-05 Y = 5.225617692734304E-06 Z =-2.210196013714782E-07
 VX=-9.726625825491870E-07 VY= 6.030374005455154E-06 VZ= 3.016926165787386E-06
2445963.500000000 = A.D. 1984-Sep-20 00:00:00.0000 TDB 
 X =-8.974415092797781E-06 Y = 2.603114092660427E-05 Z = 1.346510107218218E-05
 VX=-6.785223393339933E-06 VY=-2.576158730535928E-06 VZ=-6.764848581017115E-07
2445971.500000000 = A.D. 1984-Sep-28 00:00:00.0000 TDB 
 X =-2.073146953362058E-05 Y =-1.963766582861299E-05 Z =-7.844832715992609E-06
 VX= 5.085603456135650E-06 VY=-4.846059860451236E-06 VZ=-2.805965425593839E-06
2445979.500000000 = A.D. 1984-Oct-06 00:00:00.0000 TDB 
 X = 2.815284410467817E-05 Y =-1.401758255457152E-05 Z =-9.272561380432183E-06
 VX= 3.608014505436407E-06 VY= 5.324351209139520E-06 VZ= 2.301434069108504E-06
2445987.500000000 = A.D. 1984-Oct-14 00:00:00.0000 TDB 
 X = 1.353261749604594E-05 Y = 2.671727100722354E-05 Z = 1.198348546890295E-05
 VX=-6.393943264998746E-06 VY= 2.180608993091560E-06 VZ= 1.622231700528795E-06
2445995.500000000 = A.D. 1984-Oct-22 00:00:00.0000 TDB 
 X =-2.901882350200731E-05 Y = 2.023435482469633E-06 Z = 3.495483632933420E-06
 VX=-6.552460650203466E-07 VY=-6.856332872659429E-06 VZ=-3.319717750784609E-06
2446003.500000000 = A.D. 1984-Oct-30 00:00:00.0000 TDB 
 X = 1.015861981529250E-05 Y =-2.630895456601624E-05 Z =-1.385405086317382E-05
 VX= 6.843488947927590E-06 VY= 1.887161714646862E-06 VZ= 3.368944996043154E-07
2446011.500000000 = A.D. 1984-Nov-07 00:00:00.0000 TDB 
 X = 2.950658608503517E-05 Y = 1.370825179454872E-05 Z = 4.204863585083233E-06
 VX=-3.066982899072619E-06 VY= 5.388695983301645E-06 VZ= 2.925506927878128E-06
2446019.500000000 = A.D. 1984-Nov-15 00:00:00.0000 TDB 
 X =-1.830534486012206E-05 Y = 2.154397045991411E-05 Z = 1.223187742632503E-05
 VX=-5.607226885846013E-06 VY=-4.296878333540738E-06 VZ=-1.632939525834588E-06
2446027.500000000 = A.D. 1984-Nov-23 00:00:00.0000 TDB 
 X =-1.411293512964371E-05 Y =-2.394708484532749E-05 Z =-1.059355943376768E-05
 VX= 6.500361906636285E-06 VY=-3.201535902702883E-06 VZ=-2.146849560204377E-06
2446035.500000000 = A.D. 1984-Dec-01 00:00:00.0000 TDB 
 X = 3.171662691303545E-05 Y =-5.853079280135547E-06 Z =-5.647316887898696E-06
 VX= 1.766989392068055E-06 VY= 5.948218227764661E-06 VZ= 2.783374091634756E-06
2446043.500000000 = A.D. 1984-Dec-09 00:00:00.0000 TDB 
 X = 3.430691470803367E-06 Y = 2.826910401362778E-05 Z = 1.364783161103683E-05
 VX=-7.095594378014239E-06 VY= 1.980196207260200E-07 VZ= 7.110602617372915E-07
2446051.500000000 = A.D. 1984-Dec-17 00:00:00.0000 TDB 
 X =-2.911840283136244E-05 Y =-7.073800397359434E-06 Z =-9.889956555406622E-07
 VX= 1.757887300703225E-06 VY=-6.428749167443668E-06 VZ=-3.323785501299603E-06
2446059.500000000 = A.D. 1984-Dec-25 00:00:00.0000 TDB 
 X = 1.784866716675258E-05 Y =-2.262421922465607E-05 Z =-1.267218178306415E-05
 VX= 6.068960605252204E-06 VY= 3.547792592395071E-06 VZ= 1.235824335372928E-06
2446067.500000000 = A.D. 1985-Jan-02 00:00:00.0000 TDB 
 X = 2.421099769645152E-05 Y = 2.021341128459717E-05 Z = 7.937644274622182E-06
 VX=-4.734841409951069E-06 VY= 4.291438264744075E-06 VZ= 2.517598163879701E-06
2446075.500000000 = A.D. 1985-Jan-10 00:00:00.0000 TDB 
 X =-2.531226198819166E-05 Y = 1.376038521409366E-05 Z = 8.883209537616133E-06
 VX=-3.895988410773412E-06 VY=-5.804718690521661E-06 VZ=-2.545471505336655E-06
2446083.500000000 = A.D. 1985-Jan-18 00:00:00.0000 TDB 
 X =-5.450846866973661E-06 Y =-2.723486271603046E-05 Z =-1.301090383305406E-05
 VX= 7.139304181519657E-06 VY=-1.123929551605077E-06 VZ=-1.139864153581225E-06
2446091.500000000 = A.D. 1985-Jan-26 00:00:00.0000 TDB 
 X = 3.266723594788446E-05 Y = 2.036252071101352E-06 Z =-1.609128138266472E-06
 VX=-9.804267547253002E-08 VY= 6.105002021793768E-06 VZ= 3.034950506976294E-06
2446099.500000000 = A.D. 1985-Feb-03 00:00:00.0000 TDB 
 X =-5.444734336975897E-06 Y = 2.710363022182229E-05 Z = 1.387762752422313E-05
 VX=-7.035791979744959E-06 VY=-1.760143698782497E-06 VZ=-3.141035851717835E-07
2446107.500000000 = A.D. 1985-Feb-11 00:00:00.0000 TDB 
 X =-2.450691185465215E-05 Y =-1.610481923631731E-05 Z =-6.096491006526057E-06
 VX= 4.066051828163432E-06 VY=-5.459856226224327E-06 VZ=-3.038135303800174E-06
2446115.500000000 = A.D. 1985-Feb-19 00:00:00.0000 TDB 
 X = 2.507734968368830E-05 Y =-1.714657635775498E-05 Z =-1.048540989849340E-05
 VX= 4.547931772645051E-06 VY= 4.903841039590966E-06 VZ= 2.094445127104376E-06
2446123.500000000 = A.D. 1985-Feb-27 00:00:00.0000 TDB 
 X = 1.744495417284678E-05 Y = 2.510271069216297E-05 Z = 1.123273886894020E-05
 VX=-5.896445510542945E-06 VY= 2.898975621727752E-06 VZ= 1.908509369318240E-06
2446131.500000000 = A.D. 1985-Mar-07 00:00:00.0000 TDB 
 X =-2.826113578709486E-05 Y = 5.882532848928488E-06 Z = 5.109651370682081E-06
 VX=-1.782221651679848E-06 VY=-6.711332780126524E-06 VZ=-3.233787997283838E-06
2446139.500000000 = A.D. 1985-Mar-15 00:00:00.0000 TDB 
 X = 5.504574739715394E-06 Y =-2.726538691162347E-05 Z =-1.414584662956529E-05
 VX= 7.084928067148537E-06 VY= 1.005935861570324E-06 VZ=-3.709949143326271E-08
2446147.500000000 = A.D. 1985-Mar-23 00:00:00.0000 TDB 
 X = 3.118767948434174E-05 Y = 1.036005003736952E-05 Z = 2.862708788937666E-06
 VX=-2.138170816045653E-06 VY= 5.712059076354516E-06 VZ= 3.048710734203429E-06
2446155.500000000 = A.D. 1985-Mar-31 00:00:00.0000 TDB 
 X =-1.372946484552040E-05 Y = 2.436905103689325E-05 Z = 1.338856441922943E-05
 VX=-6.199967309559007E-06 VY=-3.439371337691604E-06 VZ=-1.264510601312396E-06
2446163.500000000 = A.D. 1985-Apr-08 00:00:00.0000 TDB 
 X =-1.731223881508387E-05 Y =-2.167301098539420E-05 Z =-9.665032701650293E-06
 VX= 5.943556500465193E-06 VY=-4.062887060792153E-06 VZ=-2.517792291300652E-06
2446171.500000000 = A.D. 1985-Apr-16 00:00:00.0000 TDB 
 X = 3.054961163100679E-05 Y =-9.053668845827926E-06 Z =-6.948008331432481E-06
 VX= 2.569913678389731E-06 VY= 5.755205083142469E-06 VZ= 2.723586244247919E-06
2446179.500000000 = A.D. 1985-Apr-24 00:00:00.0000 TDB 
 X = 8.294228386864608E-06 Y = 2.828654493137071E-05 Z = 1.374253486099322E-05
 VX=-6.704044866597222E-06 VY= 1.155122181814144E-06 VZ= 1.106299060028661E-06
2446187.500000000 = A.D. 1985-May-02 00:00:00.0000 TDB 
 X =-2.932857771838048E-05 Y =-1.642190252209640E-06 Z = 1.438726773712096E-06
 VX= 5.168039806954065E-07 VY=-6.754925910845541E-06 VZ=-3.475636941373660E-06
2446195.500000000 = A.D. 1985-May-10 00:00:00.0000 TDB 
 X = 1.487561145288411E-05 Y =-2.380660926627793E-05 Z =-1.326492052563465E-05
 VX= 6.523952867179614E-06 VY= 2.882843970659428E-06 VZ= 9.602487030116928E-07
2446203.500000000 = A.D. 1985-May-18 00:00:00.0000 TDB 
 X = 2.651632021337950E-05 Y = 1.819048800635605E-05 Z = 7.194001815807107E-06
 VX=-4.073971990173428E-06 VY= 4.742685764621295E-06 VZ= 2.727756240444201E-06
